[{"OBJECT_NAME":"COSMOS 2523","OBJECT_ID":"2017-037E","EPOCH":"2026-03-09T23:01:03.762912","MEAN_MOTION":14.95066265,"ECCENTRICITY":0.0066686,"INCLINATION":97.5062,"RA_OF_ASC_NODE":86.2978,"ARG_OF_PERICENTER":201.8356,"MEAN_ANOMALY":158.0021,"EPHEMERIS_TYPE":0,"CLASSIFICATION_TYPE":"U","NORAD_CAT_ID":42986,"ELEMENT_SET_NO":999,"REV_AT_EPOCH":45413,"BSTAR":0.00015362789,"MEAN_MOTION_DOT":1.699e-5,"MEAN_MOTION_DDOT":0},{"OBJECT_NAME":"STARLINK-3521","OBJECT_ID":"2022-016AE","EPOCH":"2026-03-09T23:25:25.862592","MEAN_MOTION":15.08832872,"ECCENTRICITY":0.0001343,"INCLINATION":53.2193,"RA_OF_ASC_NODE":318.0267,"ARG_OF_PERICENTER":102.0093,"MEAN_ANOMALY":258.105,"EPHEMERIS_TYPE":0,"CLASSIFICATION_TYPE":"U","NORAD_CAT_ID":51742,"ELEMENT_SET_NO":999,"REV_AT_EPOCH":22360,"BSTAR":-2.4279645e-5,"MEAN_MOTION_DOT":-6.74e-6,"MEAN_MOTION_DDOT":0}]
